OBJECT_NAME,OBJECT_ID,EPOCH,MEAN_MOTION,ECCENTRICITY,INCLINATION,RA_OF_ASC_NODE,ARG_OF_PERICENTER,MEAN_ANOMALY,EPHEMERIS_TYPE,CLASSIFICATION_TYPE,NORAD_CAT_ID,ELEMENT_SET_NO,REV_AT_EPOCH,BSTAR,MEAN_MOTION_DOT,MEAN_MOTION_DDOT
SBIRS GEO-6 (USA 336),2022-092A,2026-06-06T03:52:00.063840,1.00271431,.00021274,3.2771,317.2986,115.3624,18.9374,0,U,53355,999,1412,0,-.281E-5,0
EUTELSAT KONNECT VHTS,2022-110A,2026-06-05T08:23:47.944608,1.00271183,.00028777,0.0660,104.1914,316.7287,321.5236,0,U,53765,999,671,0,.29E-6,0
ZHONGXING-1E,2022-112A,2026-06-06T05:14:38.853600,1.00271130,.00003448,0.0415,105.3379,260.3004,49.0790,0,U,53813,999,1373,0,-.136E-5,0
SES-20,2022-123A,2026-06-05T14:44:17.877120,1.00272764,.00021576,0.0365,76.2394,4.3316,291.4558,0,U,53960,999,1341,0,-.89E-6,0
SES-21,2022-123B,2026-06-05T11:54:38.454624,1.00270202,.00008462,0.0279,33.4670,38.9311,229.1777,0,U,53961,999,709,0,.82E-6,0
GALAXY 33 (G-33),2022-128A,2026-06-06T03:21:38.629152,1.00272087,.00019542,0.0203,45.4280,30.1312,96.4283,0,U,54026,999,1363,0,.92E-6,0
GALAXY 34 (G-34),2022-128B,2026-06-05T23:10:11.515584,1.00274021,.00020011,0.0081,33.4234,61.9178,17.6089,0,U,54027,999,1380,0,.71E-6,0
ANGOSAT 2,2022-131A,2026-06-03T13:42:55.162656,1.00272126,.0001675,0.0320,77.4861,43.8281,359.4453,0,U,54033,999,1334,0,.147E-5,0
EUTELSAT HOTBIRD 13F,2022-134A,2026-06-06T03:16:03.508608,1.00271810,.00019476,0.0472,291.0958,73.1515,312.3364,0,U,54048,999,1326,0,.1E-5,0
LDPE-2,2022-144A,2026-06-05T14:15:39.071808,1.00528214,.00017046,5.5847,63.7457,91.4141,144.5119,0,U,54219,999,1172,0,.135E-5,0
EUTELSAT HOTBIRD 13G,2022-146A,2026-06-06T03:46:38.642016,1.00271473,.00021501,0.0462,231.3068,305.7537,147.1804,0,U,54225,999,735,0,.1E-5,0
ZHONGXING-19,2022-148A,2026-06-05T04:01:37.799040,1.00270450,.00023678,0.0304,274.7015,183.6689,18.8299,0,U,54230,999,1326,0,-.69E-6,0
GALAXY 31 (G-31),2022-153A,2026-06-06T03:13:38.698752,1.00272230,.00014237,0.0206,77.3722,358.4661,106.1326,0,U,54243,999,702,0,.26E-6,0
GALAXY 32 (G-32),2022-153B,2026-06-06T02:46:24.071232,1.00272188,.00023515,0.0134,21.9577,15.5470,167.6409,0,U,54244,999,1303,0,-.161E-5,0
EUTELSAT 10B,2022-157A,2026-06-04T23:52:34.690944,1.00270897,.00024584,0.0641,101.7982,9.9155,149.8574,0,U,54259,999,1290,0,.8E-6,0
GALAXY 35 (G-35),2022-170A,2026-06-06T01:03:05.217696,1.00272150,.00022071,0.0130,36.6919,41.7605,98.6943,0,U,54741,999,1278,0,-.15E-5,0
GALAXY 36 (G-36),2022-170B,2026-06-05T19:56:16.209024,1.00271802,.0002791,0.0072,280.0470,162.9441,21.3451,0,U,54742,999,1266,0,-.173E-5,0
METEOSAT-12 (MTG-I1),2022-170C,2026-06-06T03:12:11.378592,1.00271541,.00035215,0.7256,21.0696,70.1166,210.9931,0,U,54743,999,1286,0,.4E-7,0
SHIJIAN-23 (SJ-23),2023-002A,2026-06-05T17:59:56.976864,1.00090672,.0003906,3.6875,78.4564,277.5111,323.8270,0,U,55131,999,1239,0,-.175E-5,0
APSTAR-6E,2023-005A,2026-06-03T19:22:40.588608,1.00269237,.0001095,0.0296,251.9045,264.1846,160.8472,0,U,55239,999,1855,0,-.306E-5,0
USA 342,2023-008A,2026-06-04T03:24:27.751104,1.00271932,.0000373,0.0087,134.3874,135.9762,57.1445,0,U,55263,999,1238,0,.15E-5,0
LDPE-3A,2023-008B,2026-06-06T04:12:38.735712,0.99147782,.00012142,2.3183,81.7997,45.4363,126.1264,0,U,55264,999,1170,0,-.149E-5,0
ELEKTRO-L 4,2023-016A,2026-06-05T19:59:47.289408,1.00272553,.00007192,0.0735,183.0758,356.4783,180.4517,0,U,55506,999,1222,0,-.45E-6,0
AMAZONAS NEXUS,2023-017A,2026-06-05T13:13:39.624384,1.00270208,.00053907,0.0380,34.5795,27.5428,329.2887,0,U,55508,999,692,0,-.27E-5,0
ZHONGXING-26,2023-023A,2026-06-05T07:16:06.469824,1.00269832,.00041451,0.0711,72.6528,9.0865,46.1491,0,U,55686,999,1211,0,-.341E-5,0
LUCH-5X (OLYMP-K 2),2023-031A,2026-06-05T18:31:33.145824,1.00273024,.0000838,0.0251,55.0766,169.0546,9.9167,0,U,55841,999,1182,0,.46E-6,0
GAOFEN-13 02,2023-036A,2026-06-05T16:03:09.262080,1.00274019,.00042056,1.0187,359.6157,342.7251,300.8225,0,U,55912,999,1197,0,-.206E-5,0
SES-18,2023-038A,2026-06-06T02:43:00.409152,1.00271950,.00003996,0.0105,302.0793,62.3011,187.8188,0,U,55970,999,1199,0,-.88E-6,0
SES-19,2023-038B,2026-06-06T03:21:38.629152,1.00271151,.00018218,0.0260,296.1932,142.7843,91.1014,0,U,55971,999,1198,0,.101E-5,0
INTELSAT 40E (IS-40E),2023-052A,2026-06-06T04:28:38.797824,1.00272018,.00020903,0.0117,47.7783,68.4527,114.5463,0,U,56174,999,1171,0,-.161E-5,0
VIASAT-3 F1,2023-060A,2026-06-05T19:56:16.209024,1.00267869,.0000891,0.0233,321.9424,98.6764,43.7156,0,U,56370,999,1132,0,0,0
