SBIRS GEO-6 (USA 336)   
1 53355U 22092A   26157.16111185 -.00000281  00000+0  00000+0 0  9991
2 53355   3.2771 317.2986 0002127 115.3624  18.9374  1.00271431 14122
EUTELSAT KONNECT VHTS   
1 53765U 22110A   26156.34986047  .00000029  00000+0  00000+0 0  9992
2 53765   0.0660 104.1914 0002877 316.7287 321.5236  1.00271183  6717
ZHONGXING-1E            
1 53813U 22112A   26157.21850525 -.00000136  00000+0  00000+0 0  9996
2 53813   0.0415 105.3379 0000344 260.3004  49.0790  1.00271130 13734
SES-20                  
1 53960U 22123A   26156.61409580 -.00000089  00000+0  00000+0 0  9992
2 53960   0.0365  76.2394 0002157   4.3316 291.4558  1.00272764 13414
SES-21                  
1 53961U 22123B   26156.49627841  .00000082  00000+0  00000+0 0  9993
2 53961   0.0279  33.4670 0000846  38.9311 229.1777  1.00270202  7095
GALAXY 33 (G-33)        
1 54026U 22128A   26157.14003043  .00000092  00000+0  00000+0 0  9997
2 54026   0.0203  45.4280 0001954  30.1312  96.4283  1.00272087 13638
GALAXY 34 (G-34)        
1 54027U 22128B   26156.96541106  .00000071  00000+0  00000+0 0  9991
2 54027   0.0081  33.4234 0002001  61.9178  17.6089  1.00274021 13803
ANGOSAT 2               
1 54033U 22131A   26154.57147179  .00000147  00000+0  00000+0 0  9993
2 54033   0.0320  77.4861 0001675  43.8281 359.4453  1.00272126 13345
EUTELSAT HOTBIRD 13F    
1 54048U 22134A   26157.13615172  .00000100  00000+0  00000+0 0  9999
2 54048   0.0472 291.0958 0001947  73.1515 312.3364  1.00271810 13267
LDPE-2                  
1 54219U 22144A   26156.59420222  .00000135  00000+0  00000+0 0  9997
2 54219   5.5847  63.7457 0001704  91.4141 144.5119  1.00528214 11725
EUTELSAT HOTBIRD 13G    
1 54225U 22146A   26157.15739169  .00000100  00000+0  00000+0 0  9994
2 54225   0.0462 231.3068 0002150 305.7537 147.1804  1.00271473  7358
ZHONGXING-19            
1 54230U 22148A   26156.16779860 -.00000069  00000+0  00000+0 0  9999
2 54230   0.0304 274.7015 0002367 183.6689  18.8299  1.00270450 13266
GALAXY 31 (G-31)        
1 54243U 22153A   26157.13447568  .00000026  00000+0  00000+0 0  9996
2 54243   0.0206  77.3722 0001423 358.4661 106.1326  1.00272230  7024
GALAXY 32 (G-32)        
1 54244U 22153B   26157.11555638 -.00000161  00000+0  00000+0 0  9994
2 54244   0.0134  21.9577 0002351  15.5470 167.6409  1.00272188 13032
EUTELSAT 10B            
1 54259U 22157A   26155.99484596  .00000080  00000+0  00000+0 0  9991
2 54259   0.0641 101.7982 0002458   9.9155 149.8574  1.00270897 12908
GALAXY 35 (G-35)        
1 54741U 22170A   26157.04381039 -.00000150  00000+0  00000+0 0  9997
2 54741   0.0130  36.6919 0002207  41.7605  98.6943  1.00272150 12780
GALAXY 36 (G-36)        
1 54742U 22170B   26156.83074316 -.00000173  00000+0  00000+0 0  9996
2 54742   0.0072 280.0470 0002791 162.9441  21.3451  1.00271802 12662
METEOSAT-12 (MTG-I1)    
1 54743U 22170C   26157.13346503  .00000004  00000+0  00000+0 0  9993
2 54743   0.7256  21.0696 0003521  70.1166 210.9931  1.00271541 12864
SHIJIAN-23 (SJ-23)      
1 55131U 23002A   26156.74996501 -.00000175  00000+0  00000+0 0  9995
2 55131   3.6875  78.4564 0003906 277.5111 323.8270  1.00090672 12397
APSTAR-6E               
1 55239U 23005A   26154.80741422 -.00000306  00000+0  00000+0 0  9998
2 55239   0.0296 251.9045 0001095 264.1846 160.8472  1.00269237 18552
USA 342                 
1 55263U 23008A   26155.14198786  .00000150  00000+0  00000+0 0  9991
2 55263   0.0087 134.3874 0000373 135.9762  57.1445  1.00271932 12389
LDPE-3A                 
1 55264U 23008B   26157.17544833 -.00000149  00000+0  00000+0 0  9994
2 55264   2.3183  81.7997 0001214  45.4363 126.1264  0.99147782 11703
ELEKTRO-L 4             
1 55506U 23016A   26156.83318622 -.00000045  00000+0  00000+0 0  9994
2 55506   0.0735 183.0758 0000719 356.4783 180.4517  1.00272553 12221
AMAZONAS NEXUS          
1 55508U 23017A   26156.55115306 -.00000270  00000+0  00000+0 0  9990
2 55508   0.0380  34.5795 0005390  27.5428 329.2887  1.00270208  6920
ZHONGXING-26            
1 55686U 23023A   26156.30285266 -.00000341  00000+0  00000+0 0  9999
2 55686   0.0711  72.6528 0004145   9.0865  46.1491  1.00269832 12114
LUCH-5X (OLYMP-K 2)     
1 55841U 23031A   26156.77191141  .00000046  00000+0  00000+0 0  9991
2 55841   0.0251  55.0766 0000838 169.0546   9.9167  1.00273024 11825
GAOFEN-13 02            
1 55912U 23036A   26156.66885720 -.00000206  00000+0  00000+0 0  9995
2 55912   1.0187 359.6157 0004205 342.7251 300.8225  1.00274019 11974
SES-18                  
1 55970U 23038A   26157.11319918 -.00000088  00000+0  00000+0 0  9991
2 55970   0.0105 302.0793 0000399  62.3011 187.8188  1.00271950 11998
SES-19                  
1 55971U 23038B   26157.14003043  .00000101  00000+0  00000+0 0  9999
2 55971   0.0260 296.1932 0001821 142.7843  91.1014  1.00271151 11983
INTELSAT 40E (IS-40E)   
1 56174U 23052A   26157.18656016 -.00000161  00000+0  00000+0 0  9996
2 56174   0.0117  47.7783 0002090  68.4527 114.5463  1.00272018 11718
VIASAT-3 F1             
1 56370U 23060A   26156.83074316  .00000000  00000+0  00000+0 0  9992
2 56370   0.0233 321.9424 0000891  98.6764  43.7156  1.00267869 11326
